[{"OBJECT_NAME":"STARLINK-36084","OBJECT_ID":"2025-280J","EPOCH":"2026-03-09T22:21:12.154752","MEAN_MOTION":14.98330561,"ECCENTRICITY":0.0002624,"INCLINATION":70.0029,"RA_OF_ASC_NODE":333.7835,"ARG_OF_PERICENTER":261.2566,"MEAN_ANOMALY":98.8296,"EPHEMERIS_TYPE":0,"CLASSIFICATION_TYPE":"U","NORAD_CAT_ID":66829,"ELEMENT_SET_NO":999,"REV_AT_EPOCH":1611,"BSTAR":0.00053936886,"MEAN_MOTION_DOT":6.349e-5,"MEAN_MOTION_DDOT":0},{"OBJECT_NAME":"FENGYUN 1C DEB","OBJECT_ID":"1999-025MS","EPOCH":"2026-03-09T16:57:35.155296","MEAN_MOTION":14.61416869,"ECCENTRICITY":0.02155264,"INCLINATION":98.7394,"RA_OF_ASC_NODE":123.3199,"ARG_OF_PERICENTER":267.4845,"MEAN_ANOMALY":90.1666,"EPHEMERIS_TYPE":0,"CLASSIFICATION_TYPE":"U","NORAD_CAT_ID":30017,"ELEMENT_SET_NO":999,"REV_AT_EPOCH":1714,"BSTAR":0.0001741808,"MEAN_MOTION_DOT":1.129e-5,"MEAN_MOTION_DDOT":0}]
